     3.04           OBSERVATION DATA    M                   RINEX VERSION / TYPE
RINEX-ADAPTER sample (before) - synthetic                   COMMENT             
NOV2                                                        MARKER NAME         
NOV_13M                                                     MARKER NUMBER       
Geodetic                                                    MARKER TYPE         
UNKNOWN             UNKNOWN AGENCY                          OBSERVER / AGENCY   
0000                OLDRECV             1.0.0               REC # / TYPE / VERS 
13_M                NOV850          NONE                    ANT # / TYPE        
  3845000.0000   658000.0000  5029000.0000                  APPROX POSITION XYZ 
        0.1000        0.0000        0.0000                  ANTENNA: DELTA H/E/N
G    2 C1C L1C                                              SYS / # / OBS TYPES 
E    2 C1C L1C                                              SYS / # / OBS TYPES 
    30.000                                                  INTERVAL            
  2020    08    05    00    00    0.0000000     GPS         TIME OF FIRST OBS   
                                                            END OF HEADER       
> 2020 08 05 00 00  0.0000000  0  2
G01  23000000.000  -100000.000
E11  24000000.000  -110000.000
> 2020 08 05 00 00 30.0000000  0  2
G01  23000000.000  -100000.000
E11  24000000.000  -110000.000
> 2020 08 05 00 01  0.0000000  0  2
G01  23000000.000  -100000.000
E11  24000000.000  -110000.000
> 2020 08 05 00 01 30.0000000  0  2
G01  23000000.000  -100000.000
E11  24000000.000  -110000.000
> 2020 08 05 00 02  0.0000000  0  2
G01  23000000.000  -100000.000
E11  24000000.000  -110000.000
> 2020 08 05 00 02 30.0000000  0  2
G01  23000000.000  -100000.000
E11  24000000.000  -110000.000
> 2020 08 05 00 03  0.0000000  0  2
G01  23000000.000  -100000.000
E11  24000000.000  -110000.000
> 2020 08 05 00 03 30.0000000  0  2
G01  23000000.000  -100000.000
E11  24000000.000  -110000.000
> 2020 08 05 00 04  0.0000000  0  2
G01  23000000.000  -100000.000
E11  24000000.000  -110000.000
> 2020 08 05 00 04 30.0000000  0  2
G01  23000000.000  -100000.000
E11  24000000.000  -110000.000
> 2020 08 05 00 05  0.0000000  0  2
G01  23000000.000  -100000.000
E11  24000000.000  -110000.000
> 2020 08 05 00 05 30.0000000  0  2
G01  23000000.000  -100000.000
E11  24000000.000  -110000.000
> 2020 08 05 00 06  0.0000000  0  2
G01  23000000.000  -100000.000
E11  24000000.000  -110000.000
> 2020 08 05 00 06 30.0000000  0  2
G01  23000000.000  -100000.000
E11  24000000.000  -110000.000
> 2020 08 05 00 07  0.0000000  0  2
G01  23000000.000  -100000.000
E11  24000000.000  -110000.000
> 2020 08 05 00 07 30.0000000  0  2
G01  23000000.000  -100000.000
E11  24000000.000  -110000.000
> 2020 08 05 00 08  0.0000000  0  2
G01  23000000.000  -100000.000
E11  24000000.000  -110000.000
> 2020 08 05 00 08 30.0000000  0  2
G01  23000000.000  -100000.000
E11  24000000.000  -110000.000
> 2020 08 05 00 09  0.0000000  0  2
G01  23000000.000  -100000.000
E11  24000000.000  -110000.000
> 2020 08 05 00 09 30.0000000  0  2
G01  23000000.000  -100000.000
E11  24000000.000  -110000.000
> 2020 08 05 00 10  0.0000000  0  2
G01  23000000.000  -100000.000
E11  24000000.000  -110000.000
