     3.04           OBSERVATION DATA    M                   RINEX VERSION / TYPE
RINEX-ADAPTER batch sample - STA_B                          COMMENT             
STA_B                                                       MARKER NAME         
Geodetic                                                    MARKER TYPE         
G    2 C1C L1C                                              SYS / # / OBS TYPES 
E    2 C1C L1C                                              SYS / # / OBS TYPES 
    30.000                                                  INTERVAL            
  2020    08    05    00    00    0.0000000     GPS         TIME OF FIRST OBS   
                                                            END OF HEADER       
> 2020 08 05 00 00  0.0000000  0  2
G01  23000000.000  -100000.000
E11  24000000.000  -110000.000
> 2020 08 05 00 00 30.0000000  0  2
G01  23000000.000  -100000.000
E11  24000000.000  -110000.000
> 2020 08 05 00 01  0.0000000  0  2
G01  23000000.000  -100000.000
E11  24000000.000  -110000.000
> 2020 08 05 00 01 30.0000000  0  2
G01  23000000.000  -100000.000
E11  24000000.000  -110000.000
> 2020 08 05 00 02  0.0000000  0  2
G01  23000000.000  -100000.000
E11  24000000.000  -110000.000
